{"fetched_at":"2026-03-29T16:36:15Z","count":15609,"tles":[{"name":"STARLINK-11288 [DTC]","line1":"1 61002U 24158N   26087.70713300 -.00003934  00000+0 -27596-4 0  9996","line2":"2 61002  53.1595 187.3569 0000277 139.1007 221.0032 15.69746290 90575","category":"Starlink"}]}